start=new Date('2022-04-20T00:00:00.000Z').valueOf();
sats=[{"BSTAR":"0.00048614000000","EPOCH":"2022-04-19T19:45:14.513760","TIME_SYSTEM":"UTC","APOAPSIS":"548.237","OBJECT_ID":"2020-035AA","CENTER_NAME":"EARTH","REF_FRAME":"TEME","OBJECT_NAME":"STARLINK-1396","RA_OF_ASC_NODE":"310.6442","TLE_LINE1":"1 45681U 20035AA  22109.82308465  .00006971  00000-0  48614-3 0  9993","OBJECT_TYPE":"PAYLOAD","ARG_OF_PERICENTER":"65.0687","PERIAPSIS":"546.075","MEAN_ANOMALY":"295.0464","MEAN_MOTION":"15.06418921","COUNTRY_CODE":"US","SEMIMAJOR_AXIS":"6925.291","DECAY_DATE":null,"CLASSIFICATION_TYPE":"U","MEAN_MOTION_DOT":"0.00006971","MEAN_ELEMENT_THEORY":"SGP4","PERIOD":"95.591","MEAN_MOTION_DDOT":"0.0000000000000","LAUNCH_DATE":"2020-06-04","INCLINATION":"53.0552","GP_ID":"201635980","REV_AT_EPOCH":"10445","ECCENTRICITY":"0.00015610","TLE_LINE2":"2 45681  53.0552 310.6442 0001561  65.0687 295.0464 15.06418921104452","NORAD_CAT_ID":"45681","ELEMENT_SET_NO":"999","RCS_SIZE":"LARGE","FILE":"3408594","SITE":"AFETR","EPHEMERIS_TYPE":"0"},{"ARG_OF_PERICENTER":"53.5254","REF_FRAME":"TEME","OBJECT_NAME":"STARLINK-1397","RA_OF_ASC_NODE":"310.6016","TLE_LINE1":"1 45682U 20035AB  22109.83045186  .00000103  00000-0  25816-4 0  9994","OBJECT_TYPE":"PAYLOAD","APOAPSIS":"548.413","TIME_SYSTEM":"UTC","OBJECT_ID":"2020-035AB","CENTER_NAME":"EARTH","BSTAR":"0.00002581600000","EPOCH":"2022-04-19T19:55:51.040704","CLASSIFICATION_TYPE":"U","COUNTRY_CODE":"US","SEMIMAJOR_AXIS":"6925.342","DECAY_DATE":null,"MEAN_ANOMALY":"306.5895","MEAN_MOTION":"15.06402064","PERIAPSIS":"546.002","MEAN_MOTION_DDOT":"0.0000000000000","LAUNCH_DATE":"2020-06-04","MEAN_ELEMENT_THEORY":"SGP4","PERIOD":"95.592","MEAN_MOTION_DOT":"0.00000103","RCS_SIZE":"LARGE","FILE":"3408595","EPHEMERIS_TYPE":"0","SITE":"AFETR","ECCENTRICITY":"0.00017410","ELEMENT_SET_NO":"999","TLE_LINE2":"2 45682  53.0537 310.6016 0001741  53.5254 306.5895 15.06402064104452","NORAD_CAT_ID":"45682","REV_AT_EPOCH":"10445","GP_ID":"201636496","INCLINATION":"53.0537"},{"SEMIMAJOR_AXIS":"6925.339","COUNTRY_CODE":"US","DECAY_DATE":null,"CLASSIFICATION_TYPE":"U","PERIAPSIS":"546.193","MEAN_ANOMALY":"291.8728","MEAN_MOTION":"15.06403238","REF_FRAME":"TEME","OBJECT_TYPE":"PAYLOAD","TLE_LINE1":"1 45683U 20035AC  22109.81202904 -.00000348  00000-0 -44661-5 0  9999","RA_OF_ASC_NODE":"310.7070","OBJECT_NAME":"STARLINK-1399","ARG_OF_PERICENTER":"68.2416","EPOCH":"2022-04-19T19:29:19.309056","BSTAR":"-0.00000446610000","TIME_SYSTEM":"UTC","APOAPSIS":"548.214","CENTER_NAME":"EARTH","OBJECT_ID":"2020-035AC","ECCENTRICITY":"0.00014590","TLE_LINE2":"2 45683  53.0524 310.7070 0001459  68.2416 291.8728 15.06403238104454","NORAD_CAT_ID":"45683","ELEMENT_SET_NO":"999","RCS_SIZE":"LARGE","EPHEMERIS_TYPE":"0","FILE":"3408595","SITE":"AFETR","INCLINATION":"53.0524","GP_ID":"201636499","REV_AT_EPOCH":"10445","LAUNCH_DATE":"2020-06-04","MEAN_MOTION_DDOT":"0.0000000000000","MEAN_MOTION_DOT":"-0.00000348","MEAN_ELEMENT_THEORY":"SGP4","PERIOD":"95.592"},{"BSTAR":"0.00005990600000","EPOCH":"2022-04-19T20:32:59.571456","TIME_SYSTEM":"UTC","APOAPSIS":"548.186","OBJECT_ID":"2020-035AD","CENTER_NAME":"EARTH","REF_FRAME":"TEME","OBJECT_NAME":"STARLINK-1401","TLE_LINE1":"1 45684U 20035AD  22109.85624504  .00000611  00000-0  59906-4 0  9996","OBJECT_TYPE":"PAYLOAD","RA_OF_ASC_NODE":"310.4973","ARG_OF_PERICENTER":"67.6314","PERIAPSIS":"546.189","MEAN_ANOMALY":"292.4827","MEAN_MOTION":"15.06408419","COUNTRY_CODE":"US","SEMIMAJOR_AXIS":"6925.323","DECAY_DATE":null,"CLASSIFICATION_TYPE":"U","MEAN_MOTION_DOT":"0.00000611","MEAN_ELEMENT_THEORY":"SGP4","PERIOD":"95.592","MEAN_MOTION_DDOT":"0.0000000000000","LAUNCH_DATE":"2020-06-04","INCLINATION":"53.0551","GP_ID":"201636035","REV_AT_EPOCH":"10446","ECCENTRICITY":"0.00014420","TLE_LINE2":"2 45684  53.0551 310.4973 0001442  67.6314 292.4827 15.06408419104460","ELEMENT_SET_NO":"999","NORAD_CAT_ID":"45684","RCS_SIZE":"LARGE","FILE":"3408655","SITE":"AFETR","EPHEMERIS_TYPE":"0"},{"REF_FRAME":"TEME","TLE_LINE1":"1 45685U 20035AE  22109.52083826  .00000882  00000-0  78085-4 0  9996","OBJECT_TYPE":"PAYLOAD","RA_OF_ASC_NODE":"312.0208","OBJECT_NAME":"STARLINK-1402","ARG_OF_PERICENTER":"61.2982","EPOCH":"2022-04-19T12:30:00.425664","BSTAR":"0.00007808500000","TIME_SYSTEM":"UTC","APOAPSIS":"548.309","CENTER_NAME":"EARTH","OBJECT_ID":"2020-035AE","SEMIMAJOR_AXIS":"6925.347","COUNTRY_CODE":"US","DECAY_DATE":null,"CLASSIFICATION_TYPE":"U","PERIAPSIS":"546.115","MEAN_ANOMALY":"298.8166","MEAN_MOTION":"15.06400570","LAUNCH_DATE":"2020-06-04","MEAN_MOTION_DDOT":"0.0000000000000","MEAN_MOTION_DOT":"0.00000882","MEAN_ELEMENT_THEORY":"SGP4","PERIOD":"95.592","ECCENTRICITY":"0.00015840","TLE_LINE2":"2 45685  53.0550 312.0208 0001584  61.2982 298.8166 15.06400570104823","NORAD_CAT_ID":"45685","ELEMENT_SET_NO":"999","RCS_SIZE":"LARGE","FILE":"3408368","EPHEMERIS_TYPE":"0","SITE":"AFETR","INCLINATION":"53.0550","GP_ID":"201624405","REV_AT_EPOCH":"10482"},{"PERIOD":"95.592","MEAN_ELEMENT_THEORY":"SGP4","MEAN_MOTION_DOT":"-0.00001039","MEAN_MOTION_DDOT":"0.0000000000000","LAUNCH_DATE":"2020-06-04","REV_AT_EPOCH":"10446","GP_ID":"201636009","INCLINATION":"53.0541","FILE":"3408596","SITE":"AFETR","EPHEMERIS_TYPE":"0","RCS_SIZE":"LARGE","NORAD_CAT_ID":"45686","TLE_LINE2":"2 45686  53.0541 310.5445 0001641  57.4795 302.6353 15.06406827104466","ELEMENT_SET_NO":"999","ECCENTRICITY":"0.00016410","OBJECT_ID":"2020-035AF","CENTER_NAME":"EARTH","APOAPSIS":"548.329","TIME_SYSTEM":"UTC","BSTAR":"-0.00005082900000","EPOCH":"2022-04-19T20:17:04.864416","ARG_OF_PERICENTER":"57.4795","OBJECT_NAME":"STARLINK-1404","TLE_LINE1":"1 45686U 20035AF  22109.84519519 -.00001039  00000-0 -50829-4 0  9998","RA_OF_ASC_NODE":"310.5445","OBJECT_TYPE":"PAYLOAD","REF_FRAME":"TEME","MEAN_MOTION":"15.06406827","MEAN_ANOMALY":"302.6353","PERIAPSIS":"546.056","CLASSIFICATION_TYPE":"U","DECAY_DATE":null,"COUNTRY_CODE":"US","SEMIMAJOR_AXIS":"6925.328"},{"EPOCH":"2022-04-19T20:06:28.376352","BSTAR":"0.00043078000000","CENTER_NAME":"EARTH","OBJECT_ID":"2020-035AH","TIME_SYSTEM":"UTC","APOAPSIS":"548.158","TLE_LINE1":"1 45688U 20035AH  22109.83782843  .00006144  00000-0  43078-3 0  9998","RA_OF_ASC_NODE":"310.5662","OBJECT_TYPE":"PAYLOAD","OBJECT_NAME":"STARLINK-1408","REF_FRAME":"TEME","ARG_OF_PERICENTER":"67.5999","PERIAPSIS":"546.142","MEAN_MOTION":"15.06420728","MEAN_ANOMALY":"292.5144","DECAY_DATE":null,"SEMIMAJOR_AXIS":"6925.285","COUNTRY_CODE":"US","CLASSIFICATION_TYPE":"U","MEAN_MOTION_DOT":"0.00006144","PERIOD":"95.591","MEAN_ELEMENT_THEORY":"SGP4","LAUNCH_DATE":"2020-06-04","MEAN_MOTION_DDOT":"0.0000000000000","GP_ID":"201636541","INCLINATION":"53.0534","REV_AT_EPOCH":"10445","TLE_LINE2":"2 45688  53.0534 310.5662 0001456  67.5999 292.5144 15.06420728104453","ELEMENT_SET_NO":"999","NORAD_CAT_ID":"45688","ECCENTRICITY":"0.00014560","FILE":"3408598","EPHEMERIS_TYPE":"0","SITE":"AFETR","RCS_SIZE":"LARGE"},{"OBJECT_ID":"2020-035AJ","CENTER_NAME":"EARTH","APOAPSIS":"548.409","TIME_SYSTEM":"UTC","BSTAR":"0.00010790000000","EPOCH":"2022-04-19T14:21:27.793440","ARG_OF_PERICENTER":"63.8461","OBJECT_NAME":"STARLINK-1413","RA_OF_ASC_NODE":"311.6595","TLE_LINE1":"1 45689U 20035AJ  22109.59823835  .00001326  00000-0  10790-3 0  9991","OBJECT_TYPE":"PAYLOAD","REF_FRAME":"TEME","MEAN_MOTION":"15.06391565","MEAN_ANOMALY":"296.2701","PERIAPSIS":"546.070","CLASSIFICATION_TYPE":"U","DECAY_DATE":null,"COUNTRY_CODE":"US","SEMIMAJOR_AXIS":"6925.374","PERIOD":"95.593","MEAN_ELEMENT_THEORY":"SGP4","MEAN_MOTION_DOT":"0.00001326","MEAN_MOTION_DDOT":"0.0000000000000","LAUNCH_DATE":"2020-06-04","REV_AT_EPOCH":"10474","GP_ID":"201626158","INCLINATION":"53.0553","FILE":"3408368","EPHEMERIS_TYPE":"0","SITE":"AFETR","RCS_SIZE":"LARGE","TLE_LINE2":"2 45689  53.0553 311.6595 0001689  63.8461 296.2701 15.06391565104741","NORAD_CAT_ID":"45689","ELEMENT_SET_NO":"999","ECCENTRICITY":"0.00016890"},{"PERIAPSIS":"548.668","MEAN_ANOMALY":"290.3444","MEAN_MOTION":"15.05608412","COUNTRY_CODE":"US","SEMIMAJOR_AXIS":"6927.776","DECAY_DATE":null,"CLASSIFICATION_TYPE":"U","BSTAR":"0.00083798000000","EPOCH":"2022-04-19T19:27:50.853600","APOAPSIS":"550.613","TIME_SYSTEM":"UTC","OBJECT_ID":"2020-035AK","CENTER_NAME":"EARTH","REF_FRAME":"TEME","OBJECT_NAME":"STARLINK-1414","TLE_LINE1":"1 45690U 20035AK  22109.81100525  .00011960  00000-0  83798-3 0  9995","RA_OF_ASC_NODE":"310.7136","OBJECT_TYPE":"PAYLOAD","ARG_OF_PERICENTER":"69.7695","INCLINATION":"52.9994","GP_ID":"201636116","REV_AT_EPOCH":"10441","ECCENTRICITY":"0.00014040","TLE_LINE2":"2 45690  52.9994 310.7136 0001404  69.7695 290.3444 15.05608412104414","NORAD_CAT_ID":"45690","ELEMENT_SET_NO":"999","RCS_SIZE":"LARGE","FILE":"3408603","SITE":"AFETR","EPHEMERIS_TYPE":"0","MEAN_MOTION_DOT":"0.00011960","MEAN_ELEMENT_THEORY":"SGP4","PERIOD":"95.642","MEAN_MOTION_DDOT":"0.0000000000000","LAUNCH_DATE":"2020-06-04"},{"INCLINATION":"53.0539","GP_ID":"201639262","REV_AT_EPOCH":"10486","NORAD_CAT_ID":"45691","TLE_LINE2":"2 45691  53.0539 310.5331 0001561  58.5333 301.5808 15.06403427104864","ELEMENT_SET_NO":"999","ECCENTRICITY":"0.00015610","FILE":"3408748","EPHEMERIS_TYPE":"0","SITE":"AFETR","RCS_SIZE":"LARGE","MEAN_MOTION_DOT":"0.00001952","PERIOD":"95.592","MEAN_ELEMENT_THEORY":"SGP4","LAUNCH_DATE":"2020-06-04","MEAN_MOTION_DDOT":"0.0000000000000","PERIAPSIS":"546.122","MEAN_MOTION":"15.06403427","MEAN_ANOMALY":"301.5808","DECAY_DATE":null,"SEMIMAJOR_AXIS":"6925.338","COUNTRY_CODE":"US","CLASSIFICATION_TYPE":"U","EPOCH":"2022-04-19T20:22:23.895552","BSTAR":"0.00014988000000","CENTER_NAME":"EARTH","OBJECT_ID":"2020-035AL","APOAPSIS":"548.284","TIME_SYSTEM":"UTC","TLE_LINE1":"1 45691U 20035AL  22109.84888768  .00001952  00000-0  14988-3 0  9996","OBJECT_TYPE":"PAYLOAD","RA_OF_ASC_NODE":"310.5331","OBJECT_NAME":"STARLINK-1415","REF_FRAME":"TEME","ARG_OF_PERICENTER":"58.5333"}];
